0 DELTA 1 DEB
1 07940U 72058CF  13281.83413772  .00001936  00000-0  79993-3 0  9586
2 07940 098.0498 057.2633 0346643 201.7911 284.6824 13.99890670 90996
0 DELTA 1 DEB
1 07940U 72058CF  13284.19279056  .00002086  00000-0  85964-3 0  9596
2 07940 098.0507 059.3444 0346747 195.1019 291.3847 13.99904028 91321
0 DELTA 1 DEB
1 07940U 72058CF  13286.19396128  .00001761  00000-0  72802-3 0  9606
2 07940 098.0516 061.1105 0346849 189.4333 296.5810 13.99912553 91604
0 DELTA 1 DEB
1 07940U 72058CF  13288.31918515  .00002268  00000-0  93215-3 0  9617
2 07940 098.0525 062.9862 0346925 183.4035 207.0371 13.99921422 91908
0 DELTA 1 DEB
1 07940U 72058CF  13290.32048968  .00001811  00000-0  74727-3 0  9628
2 07940 098.0531 064.7528 0346965 177.7395 213.0335 13.99931705 92186
0 DELTA 1 DEB
1 07940U 72058CF  13292.40118407  .00001736  00000-0  71649-3 0  9632
2 07940 098.0534 066.5897 0347023 171.8511 259.2064 13.99940452 92471
0 DELTA 1 DEB
1 07940U 72058CF  13294.84759907  .00001714  00000-0  70756-3 0  9643
2 07940 098.0533 068.7494 0347001 164.9361 348.5944 13.99951787 92819
